[{"OBJECT_NAME":"STARLINK-4494","OBJECT_ID":"2022-101AH","EPOCH":"2026-03-09T23:38:35.771136","MEAN_MOTION":15.08833701,"ECCENTRICITY":0.00014733,"INCLINATION":53.2178,"RA_OF_ASC_NODE":57.5174,"ARG_OF_PERICENTER":100.1869,"MEAN_ANOMALY":259.9289,"EPHEMERIS_TYPE":0,"CLASSIFICATION_TYPE":"U","NORAD_CAT_ID":53558,"ELEMENT_SET_NO":999,"REV_AT_EPOCH":19708,"BSTAR":-2.0114962e-5,"MEAN_MOTION_DOT":-6.08e-6,"MEAN_MOTION_DDOT":0},{"OBJECT_NAME":"FENGYUN 1C DEB","OBJECT_ID":"1999-025CDM","EPOCH":"2026-03-09T06:24:55.905408","MEAN_MOTION":15.0430028,"ECCENTRICITY":0.00202824,"INCLINATION":99.0326,"RA_OF_ASC_NODE":346.4521,"ARG_OF_PERICENTER":26.5298,"MEAN_ANOMALY":133.8427,"EPHEMERIS_TYPE":0,"CLASSIFICATION_TYPE":"U","NORAD_CAT_ID":31714,"ELEMENT_SET_NO":999,"REV_AT_EPOCH":97342,"BSTAR":0.0098433176,"MEAN_MOTION_DOT":0.00140271,"MEAN_MOTION_DDOT":0}]
